NEMO-HD                 
1 46277U 20061F   26068.94426947  .00012416  00000+0  28818-3 0  9995
2 46277  97.2041 131.9888 0002366  77.9240 282.2273 15.42511539306679
FLOCK 4BE-26            
1 60484U 24149S   26068.95044390  .00108980  00000+0  23325-2 0  9990
2 60484  97.3752 151.8070 0006154 241.3498 118.7132 15.44367712 87037
