[{"OBJECT_NAME":"NEMO-HD","OBJECT_ID":"2020-061F","EPOCH":"2026-03-09T22:39:44.882208","MEAN_MOTION":15.42511539,"ECCENTRICITY":0.00023666,"INCLINATION":97.2041,"RA_OF_ASC_NODE":131.9888,"ARG_OF_PERICENTER":77.924,"MEAN_ANOMALY":282.2273,"EPHEMERIS_TYPE":0,"CLASSIFICATION_TYPE":"U","NORAD_CAT_ID":46277,"ELEMENT_SET_NO":999,"REV_AT_EPOCH":30667,"BSTAR":0.00028818248,"MEAN_MOTION_DOT":0.00012416,"MEAN_MOTION_DDOT":0},{"OBJECT_NAME":"FLOCK 4BE-26","OBJECT_ID":"2024-149S","EPOCH":"2026-03-09T22:48:38.352960","MEAN_MOTION":15.44367712,"ECCENTRICITY":0.00061541,"INCLINATION":97.3752,"RA_OF_ASC_NODE":151.807,"ARG_OF_PERICENTER":241.3498,"MEAN_ANOMALY":118.7132,"EPHEMERIS_TYPE":0,"CLASSIFICATION_TYPE":"U","NORAD_CAT_ID":60484,"ELEMENT_SET_NO":999,"REV_AT_EPOCH":8703,"BSTAR":0.002332528,"MEAN_MOTION_DOT":0.0010898,"MEAN_MOTION_DDOT":0}]
